0 COSMOS 2251 DEB
1 35654U 93036ANV 13282.65393444  .00030867  00000-0  22246-2 0  4861
2 35654 074.0747 269.8635 0125131 037.1005 323.8747 14.97861934237190
0 COSMOS 2251 DEB
1 35654U 93036ANV 13289.59914851  .00046337  00000-0  33011-2 0  4874
2 35654 074.0746 255.8190 0124221 021.2224 339.4048 14.98281387238238
0 COSMOS 2251 DEB
1 35654U 93036ANV 13290.60071572  .00028540  00000-0  20420-2 0  4889
2 35654 074.0736 253.8011 0123541 018.2804 342.3273 14.98314353238380
0 COSMOS 2251 DEB
1 35654U 93036ANV 13292.87063573  .00042016  00000-0  29763-2 0  4885
2 35654 074.0761 249.1993 0123915 013.7616 346.6895 14.98538115238720
0 COSMOS 2251 DEB
1 35654U 93036ANV 13294.53954948  .00049920  00000-0  35241-2 0  4895
2 35654 074.0741 245.8208 0123544 010.0138 350.3465 14.98656514238973
0 COSMOS 2251 DEB
1 35654U 93036ANV 13295.54083056  .00047183  00000-0  33262-2 0  4902
2 35654 074.0749 243.7951 0123365 007.7039 352.6002 14.98737993239128
